[
    {
        "Altitude(m)": 717876.8137876816,
        "Argument of Periapsis(deg)": 0.006834072711976239,
        "Eccentricity": 0.0,
        "Inclination(deg)": 45.0,
        "Latitude(deg)": -45.14039305417262,
        "Longitude(deg)": -162.2234762446195,
        "Mean Anomaly(deg)": 268.7381299884885,
        "RAAN(deg)": 29.993548835125075,
        "Satellite Name": "Constellation 1 148",
        "Satellite Number": 148,
        "Semi-Major Axis(m)": 7083131.272910544,
        "Time(s)": 114
    },
    {
        "Altitude(m)": 717877.3384976842,
        "Argument of Periapsis(deg)": 0.006894020718221645,
        "Eccentricity": 0.0,
        "Inclination(deg)": 45.0,
        "Latitude(deg)": -45.14168661930827,
        "Longitude(deg)": -162.14198651662917,
        "Mean Anomaly(deg)": 268.7988311287384,
        "RAAN(deg)": 29.9934922459595,
        "Satellite Name": "Constellation 1 148",
        "Satellite Number": 148,
        "Semi-Major Axis(m)": 7083131.272910544,
        "Time(s)": 115
    },
    {
        "Altitude(m)": 717877.8368194392,
        "Argument of Periapsis(deg)": 0.006953968724467052,
        "Eccentricity": 0.0,
        "Inclination(deg)": 45.0,
        "Latitude(deg)": -45.142916053367486,
        "Longitude(deg)": -162.06049302122693,
        "Mean Anomaly(deg)": 268.85953226898835,
        "RAAN(deg)": 29.993435656793938,
        "Satellite Name": "Constellation 1 148",
        "Satellite Number": 148,
        "Semi-Major Axis(m)": 7083131.272910544,
        "Time(s)": 116
    },
    {
        "Altitude(m)": 717878.3087510834,
        "Argument of Periapsis(deg)": 0.007013916730712457,
        "Eccentricity": 0.0,
        "Inclination(deg)": 45.0,
        "Latitude(deg)": -45.14408135090863,
        "Longitude(deg)": -161.978995949629,
        "Mean Anomaly(deg)": 268.9202334092382,
        "RAAN(deg)": 29.993379067628364,
        "Satellite Name": "Constellation 1 148",
        "Satellite Number": 148,
        "Semi-Major Axis(m)": 7083131.272910544,
        "Time(s)": 117
    },
    {
        "Altitude(m)": 717878.7542908587,
        "Argument of Periapsis(deg)": 0.007073864736957864,
        "Eccentricity": 0.0,
        "Inclination(deg)": 45.0,
        "Latitude(deg)": -45.145182506773295,
        "Longitude(deg)": -161.8974954931148,
        "Mean Anomaly(deg)": 268.98093454948804,
        "RAAN(deg)": 29.993322478462794,
        "Satellite Name": "Constellation 1 148",
        "Satellite Number": 148,
        "Semi-Major Axis(m)": 7083131.272910544,
        "Time(s)": 118
    },
    {
        "Altitude(m)": 717879.1734370976,
        "Argument of Periapsis(deg)": 0.0071338127432032696,
        "Eccentricity": 0.0,
        "Inclination(deg)": 45.0,
        "Latitude(deg)": -45.146219516086276,
        "Longitude(deg)": -161.81599201112152,
        "Mean Anomaly(deg)": 269.041635689738,
        "RAAN(deg)": 29.993265889297227,
        "Satellite Name": "Constellation 1 148",
        "Satellite Number": 148,
        "Semi-Major Axis(m)": 7083131.272910544,
        "Time(s)": 119
    },
    {
        "Altitude(m)": 717879.5661882306,
        "Argument of Periapsis(deg)": 0.007193760749448674,
        "Eccentricity": 0.0,
        "Inclination(deg)": 45.0,
        "Latitude(deg)": -45.1471923742568,
        "Longitude(deg)": -161.73448535885228,
        "Mean Anomaly(deg)": 269.1023368299879,
        "RAAN(deg)": 29.99320930013166,
        "Satellite Name": "Constellation 1 148",
        "Satellite Number": 148,
        "Semi-Major Axis(m)": 7083131.272910544,
        "Time(s)": 120
    },
    {
        "Altitude(m)": 717879.9325427905,
        "Argument of Periapsis(deg)": 0.007253708755694079,
        "Eccentricity": 0.0,
        "Inclination(deg)": 45.0,
        "Latitude(deg)": -45.148101076976765,
        "Longitude(deg)": -161.65297589585555,
        "Mean Anomaly(deg)": 269.1630379702378,
        "RAAN(deg)": 29.993152710966086,
        "Satellite Name": "Constellation 1 148",
        "Satellite Number": 148,
        "Semi-Major Axis(m)": 7083131.272910544,
        "Time(s)": 121
    },
    {
        "Altitude(m)": 717880.2724994038,
        "Argument of Periapsis(deg)": 0.0073136567619394854,
        "Eccentricity": 0.0,
        "Inclination(deg)": 45.0,
        "Latitude(deg)": -45.14894562022218,
        "Longitude(deg)": -161.5714638136324,
        "Mean Anomaly(deg)": 269.22373911048766,
        "RAAN(deg)": 29.993096121800523,
        "Satellite Name": "Constellation 1 148",
        "Satellite Number": 148,
        "Semi-Major Axis(m)": 7083131.272910544,
        "Time(s)": 122
    },
    {
        "Altitude(m)": 717880.5860567958,
        "Argument of Periapsis(deg)": 0.0073736047681848904,
        "Eccentricity": 0.0,
        "Inclination(deg)": 45.0,
        "Latitude(deg)": -45.149726000252784,
        "Longitude(deg)": -161.48994930373112,
        "Mean Anomaly(deg)": 269.28444025073753,
        "RAAN(deg)": 29.99303953263495,
        "Satellite Name": "Constellation 1 148",
        "Satellite Number": 148,
        "Semi-Major Axis(m)": 7083131.272910544,
        "Time(s)": 123
    },
    {
        "Altitude(m)": 717880.8732137872,
        "Argument of Periapsis(deg)": 0.007433552774430298,
        "Eccentricity": 0.0,
        "Inclination(deg)": 45.0,
        "Latitude(deg)": -45.150442213612195,
        "Longitude(deg)": -161.4084325577435,
        "Mean Anomaly(deg)": 269.3451413909875,
        "RAAN(deg)": 29.99298294346938,
        "Satellite Name": "Constellation 1 148",
        "Satellite Number": 148,
        "Semi-Major Axis(m)": 7083131.272910544,
        "Time(s)": 124
    },
    {
        "Altitude(m)": 717881.1339692943,
        "Argument of Periapsis(deg)": 0.007493500780675703,
        "Eccentricity": 0.0,
        "Inclination(deg)": 45.0,
        "Latitude(deg)": -45.15109425712806,
        "Longitude(deg)": -161.32691376730125,
        "Mean Anomaly(deg)": 269.4058425312374,
        "RAAN(deg)": 29.992926354303805,
        "Satellite Name": "Constellation 1 148",
        "Satellite Number": 148,
        "Semi-Major Axis(m)": 7083131.272910544,
        "Time(s)": 125
    },
    {
        "Altitude(m)": 717881.3683223429,
        "Argument of Periapsis(deg)": 0.007553448786921108,
        "Eccentricity": 0.0,
        "Inclination(deg)": 45.0,
        "Latitude(deg)": -45.15168212791167,
        "Longitude(deg)": -161.24539329216975,
        "Mean Anomaly(deg)": 269.4665436714873,
        "RAAN(deg)": 29.99286976513824,
        "Satellite Name": "Constellation 1 148",
        "Satellite Number": 148,
        "Semi-Major Axis(m)": 7083131.272910544,
        "Time(s)": 126
    },
    {
        "Altitude(m)": 717881.5762720415,
        "Argument of Periapsis(deg)": 0.007613396793166514,
        "Eccentricity": 0.0,
        "Inclination(deg)": 45.0,
        "Latitude(deg)": -45.15220582335938,
        "Longitude(deg)": -161.16387098785643,
        "Mean Anomaly(deg)": 269.5272448117372,
        "RAAN(deg)": 29.992813175972667,
        "Satellite Name": "Constellation 1 148",
        "Satellite Number": 148,
        "Semi-Major Axis(m)": 7083131.272910544,
        "Time(s)": 127
    },
    {
        "Altitude(m)": 717881.7578176062,
        "Argument of Periapsis(deg)": 0.007673344799411918,
        "Eccentricity": 0.0,
        "Inclination(deg)": 45.0,
        "Latitude(deg)": -45.15266534115074,
        "Longitude(deg)": -161.08234721418958,
        "Mean Anomaly(deg)": 269.58794595198714,
        "RAAN(deg)": 29.9927565868071,
        "Satellite Name": "Constellation 1 148",
        "Satellite Number": 148,
        "Semi-Major Axis(m)": 7083131.272910544,
        "Time(s)": 128
    },
    {
        "Altitude(m)": 717881.912958341,
        "Argument of Periapsis(deg)": 0.007733292805657325,
        "Eccentricity": 0.0,
        "Inclination(deg)": 45.0,
        "Latitude(deg)": -45.15306067924976,
        "Longitude(deg)": -161.00082216292662,
        "Mean Anomaly(deg)": 269.648647092237,
        "RAAN(deg)": 29.99269999764153,
        "Satellite Name": "Constellation 1 148",
        "Satellite Number": 148,
        "Semi-Major Axis(m)": 7083131.272910544,
        "Time(s)": 129
    },
    {
        "Altitude(m)": 717882.04169366,
        "Argument of Periapsis(deg)": 0.00779324081190273,
        "Eccentricity": 0.0,
        "Inclination(deg)": 45.0,
        "Latitude(deg)": -45.15339183590479,
        "Longitude(deg)": -160.91929602584804,
        "Mean Anomaly(deg)": 269.70934823248683,
        "RAAN(deg)": 29.992643408475963,
        "Satellite Name": "Constellation 1 148",
        "Satellite Number": 148,
        "Semi-Major Axis(m)": 7083131.272910544,
        "Time(s)": 130
    },
    {
        "Altitude(m)": 717882.1440230644,
        "Argument of Periapsis(deg)": 0.007853188818148135,
        "Eccentricity": 0.0,
        "Inclination(deg)": 45.0,
        "Latitude(deg)": -45.15365880964837,
        "Longitude(deg)": -160.8377689947539,
        "Mean Anomaly(deg)": 269.77004937273676,
        "RAAN(deg)": 29.99258681931039,
        "Satellite Name": "Constellation 1 148",
        "Satellite Number": 148,
        "Semi-Major Axis(m)": 7083131.272910544,
        "Time(s)": 131
    },
    {
        "Altitude(m)": 717882.2199461563,
        "Argument of Periapsis(deg)": 0.007913136824393542,
        "Eccentricity": 0.0,
        "Inclination(deg)": 45.0,
        "Latitude(deg)": -45.153861599297365,
        "Longitude(deg)": -160.75624126145996,
        "Mean Anomaly(deg)": 269.8307505129867,
        "RAAN(deg)": 29.992530230144826,
        "Satellite Name": "Constellation 1 148",
        "Satellite Number": 148,
        "Semi-Major Axis(m)": 7083131.272910544,
        "Time(s)": 132
    }
]